{
    "links": {
        "self": "http://www.neowsapp.com/rest/v1/neo/3602786?api_key=iIulBulltgU6a56xZRHN4H3l9WmuAYTsLGpBGhQ2"
    },
    "id": "3602786",
    "neo_reference_id": "3602786",
    "name": "(2012 HK8)",
    "designation": "2012 HK8",
    "nasa_jpl_url": "http://ssd.jpl.nasa.gov/sbdb.cgi?sstr=3602786",
    "absolute_magnitude_h": 23.5,
    "estimated_diameter": {
        "kilometers": {
            "estimated_diameter_min": 0.0530340723,
            "estimated_diameter_max": 0.1185877909
        },
        "meters": {
            "estimated_diameter_min": 53.0340723319,
            "estimated_diameter_max": 118.5877908577
        },
        "miles": {
            "estimated_diameter_min": 0.0329538346,
            "estimated_diameter_max": 0.0736870142
        },
        "feet": {
            "estimated_diameter_min": 173.9963058693,
            "estimated_diameter_max": 389.0675677576
        }
    },
    "is_potentially_hazardous_asteroid": false,
    "close_approach_data": [
        {
            "close_approach_date": "2012-04-19",
            "close_approach_date_full": "2012-Apr-19 09:31",
            "epoch_date_close_approach": 1334827860000,
            "relative_velocity": {
                "kilometers_per_second": "19.9519359668",
                "kilometers_per_hour": "71826.969480359",
                "miles_per_hour": "44630.4855640598"
            },
            "miss_distance": {
                "astronomical": "0.0633283172",
                "lunar": "24.6347153908",
                "kilometers": "9473781.363804364",
                "miles": "5886734.7679496632"
            },
            "orbiting_body": "Earth"
        }
    ],
    "orbital_data": {
        "orbit_id": "7",
        "orbit_determination_date": "2019-07-19 05:25:36",
        "first_observation_date": "2012-04-21",
        "last_observation_date": "2012-04-26",
        "data_arc_in_days": 5,
        "observations_used": 64,
        "orbit_uncertainty": "8",
        "minimum_orbit_intersection": ".0613094",
        "jupiter_tisserand_invariant": "4.378",
        "epoch_osculation": "2456041.5",
        "eccentricity": ".2961720104937637",
        "semi_major_axis": "1.458268897423993",
        "inclination": "36.80410481682428",
        "ascending_node_longitude": "210.9310113863238",
        "orbital_period": "643.2130490449672",
        "perihelion_distance": "1.026370466233405",
        "perihelion_argument": "326.2438508038153",
        "aphelion_distance": "1.890167328614581",
        "perihelion_time": "2456005.502273852530",
        "mean_anomaly": "20.14757230490083",
        "mean_motion": ".5596901377149025",
        "equinox": "J2000",
        "orbit_class": {
            "orbit_class_type": "AMO",
            "orbit_class_description": "Near-Earth asteroid orbits similar to that of 1221 Amor",
            "orbit_class_range": "1.017 AU < q (perihelion) < 1.3 AU"
        }
    },
    "is_sentry_object": false
}